{"type": "FeatureCollection", "features": [ {"type": "Feature", "properties": {"norad_id": 32289, "name": "YAOGAN-3", "group": "resource", "lat": 67.94558842055143, "lon": -143.73433601079876, "alt_km": 590.9316866438676, "timestamp": "2025-12-15T19:00:45.002862+00:00", "meta": {"OBJECT_NAME": "YAOGAN-3", "OBJECT_ID": "2007-055A", "EPOCH": "2025-12-14T23:10:31.417824", "MEAN_MOTION": 14.89872569, "ECCENTRICITY": 0.00013707, "INCLINATION": 97.8371, "RA_OF_ASC_NODE": 15.5709, "ARG_OF_PERICENTER": 78.2213, "MEAN_ANOMALY": 281.9158, "EPHEMERIS_TYPE": 0, "CLASSIFICATION_TYPE": "U", "NORAD_CAT_ID": 32289, "ELEMENT_SET_NO": 999, "REV_AT_EPOCH": 97842, "BSTAR": 0.00031042983, "MEAN_MOTION_DOT": 2.929e-05, "MEAN_MOTION_DDOT": 0}, "tle": {"line1": "1 32289U 07055A   25348.96564141  .00002929  00000+0  31043-3 0  9994", "line2": "2 32289  97.8371  15.5709 0001370  78.2213 281.9158 14.89872569978425"}}, "geometry": {"type": "Point", "coordinates": [-143.73433601079876, 67.94558842055143]}}, {"type": "Feature", "properties": {"norad_id": 32376, "name": "COSMO-SKYMED 2", "group": "resource", "lat": -54.20944683696834, "lon": -177.8531699056087, "alt_km": 630.2755572280948, "timestamp": "2025-12-15T19:00:45.002874+00:00", "meta": {"OBJECT_NAME": "COSMO-SKYMED 2", "OBJECT_ID": "2007-059A", "EPOCH": "2025-12-14T22:11:48.267744", "MEAN_MOTION": 14.82145384, "ECCENTRICITY": 0.00013878, "INCLINATION": 97.8811, "RA_OF_ASC_NODE": 170.2159, "ARG_OF_PERICENTER": 83.142, "MEAN_ANOMALY": 276.9952, "EPHEMERIS_TYPE": 0, "CLASSIFICATION_TYPE": "U", "NORAD_CAT_ID": 32376, "ELEMENT_SET_NO": 999, "REV_AT_EPOCH": 97470, "BSTAR": 8.956851e-05, "MEAN_MOTION_DOT": 6.61e-06, "MEAN_MOTION_DDOT": 0}, "tle": {"line1": "1 32376U 07059A   25348.92486421  .00000661  00000+0  89569-4 0  9993", "line2": "2 32376  97.8811 170.2159 0001387  83.1420 276.9952 14.82145384974706"}}, "geometry": {"type": "Point", "coordinates": [-177.8531699056087, -54.20944683696834]}}, {"type": "Feature", "properties": {"norad_id": 32382, "name": "RADARSAT-2", "group": "resource", "lat": 40.98873825001798, "lon": -13.200448103808496, "alt_km": 787.8903406792715, "timestamp": "2025-12-15T19:00:45.002884+00:00", "meta": {"OBJECT_NAME": "RADARSAT-2", "OBJECT_ID": "2007-061A", "EPOCH": "2025-12-14T22:40:02.028288", "MEAN_MOTION": 14.2998229, "ECCENTRICITY": 0.00011307, "INCLINATION": 98.5804, "RA_OF_ASC_NODE": 353.5028, "ARG_OF_PERICENTER": 85.788, "MEAN_ANOMALY": 274.3432, "EPHEMERIS_TYPE": 0, "CLASSIFICATION_TYPE": "U", "NORAD_CAT_ID": 32382, "ELEMENT_SET_NO": 999, "REV_AT_EPOCH": 93962, "BSTAR": 3.5110508e-05, "MEAN_MOTION_DOT": 4.7e-07, "MEAN_MOTION_DDOT": 0}, "tle": {"line1": "1 32382U 07061A   25348.94446792  .00000047  00000+0  35111-4 0  9994", "line2": "2 32382  98.5804 353.5028 0001130  85.7880 274.3432 14.29982290939621"}}, "geometry": {"type": "Point", "coordinates": [-13.200448103808496, 40.98873825001798]}}, {"type": "Feature", "properties": {"norad_id": 32783, "name": "CARTOSAT-2A", "group": "resource", "lat": 48.90467137843137, "lon": 30.486084819009303, "alt_km": 623.5246649605451, "timestamp": "2025-12-15T19:00:45.002895+00:00", "meta": {"OBJECT_NAME": "CARTOSAT-2A", "OBJECT_ID": "2008-021A", "EPOCH": "2025-12-14T23:18:16.502112", "MEAN_MOTION": 14.78943331, "ECCENTRICITY": 0.00116562, "INCLINATION": 97.7934, "RA_OF_ASC_NODE": 38.7247, "ARG_OF_PERICENTER": 357.6018, "MEAN_ANOMALY": 2.5136, "EPHEMERIS_TYPE": 0, "CLASSIFICATION_TYPE": "U", "NORAD_CAT_ID": 32783, "ELEMENT_SET_NO": 999, "REV_AT_EPOCH": 95157, "BSTAR": 0.00018244769, "MEAN_MOTION_DOT": 1.297e-05, "MEAN_MOTION_DDOT": 0}, "tle": {"line1": "1 32783U 08021A   25348.97102433  .00001297  00000+0  18245-3 0  9996", "line2": "2 32783  97.7934  38.7247 0011656 357.6018   2.5136 14.78943331951571"}}, "geometry": {"type": "Point", "coordinates": [30.486084819009303, 48.90467137843137]}}, {"type": "Feature", "properties": {"norad_id": 33320, "name": "HUANJING 1A (HJ-1A)", "group": "resource", "lat": -36.156288760422065, "lon": -16.39716604125357, "alt_km": 618.1500843176473, "timestamp": "2025-12-15T19:00:45.002905+00:00", "meta": {"OBJECT_NAME": "HUANJING 1A (HJ-1A)", "OBJECT_ID": "2008-041A", "EPOCH": "2025-12-14T23:44:58.998336", "MEAN_MOTION": 14.83404436, "ECCENTRICITY": 0.00199985, "INCLINATION": 97.6542, "RA_OF_ASC_NODE": 337.1942, "ARG_OF_PERICENTER": 27.2683, "MEAN_ANOMALY": 332.9577, "EPHEMERIS_TYPE": 0, "CLASSIFICATION_TYPE": "U", "NORAD_CAT_ID": 33320, "ELEMENT_SET_NO": 999, "REV_AT_EPOCH": 93109, "BSTAR": 0.00026301968, "MEAN_MOTION_DOT": 2.114e-05, "MEAN_MOTION_DDOT": 0}, "tle": {"line1": "1 33320U 08041A   25348.98957174  .00002114  00000+0  26302-3 0  9999", "line2": "2 33320  97.6542 337.1942 0019998  27.2683 332.9577 14.83404436931094"}}, "geometry": {"type": "Point", "coordinates": [-16.39716604125357, -36.156288760422065]}}, {"type": "Feature", "properties": {"norad_id": 33321, "name": "HUANJING 1B (HJ-1B)", "group": "resource", "lat": 0.8895005282205456, "lon": 161.7719299566882, "alt_km": 633.6484628793451, "timestamp": "2025-12-15T19:00:45.002916+00:00", "meta": {"OBJECT_NAME": "HUANJING 1B (HJ-1B)", "OBJECT_ID": "2008-041B", "EPOCH": "2025-12-14T22:46:38.258688", "MEAN_MOTION": 14.82831512, "ECCENTRICITY": 0.00381689, "INCLINATION": 97.6403, "RA_OF_ASC_NODE": 340.8467, "ARG_OF_PERICENTER": 68.7673, "MEAN_ANOMALY": 291.7612, "EPHEMERIS_TYPE": 0, "CLASSIFICATION_TYPE": "U", "NORAD_CAT_ID": 33321, "ELEMENT_SET_NO": 999, "REV_AT_EPOCH": 93110, "BSTAR": 0.00027524274, "MEAN_MOTION_DOT": 2.204e-05, "MEAN_MOTION_DDOT": 0}, "tle": {"line1": "1 33321U 08041B   25348.94905392  .00002204  00000+0  27524-3 0  9998", "line2": "2 33321  97.6403 340.8467 0038168  68.7673 291.7612 14.82831512931105"}}, "geometry": {"type": "Point", "coordinates": [161.7719299566882, 0.8895005282205456]}}, {"type": "Feature", "properties": {"norad_id": 33331, "name": "GEOEYE 1", "group": "resource", "lat": -32.462829486040775, "lon": 66.24922828136911, "alt_km": 682.9350566724343, "timestamp": "2025-12-15T19:00:45.002926+00:00", "meta": {"OBJECT_NAME": "GEOEYE 1", "OBJECT_ID": "2008-042A", "EPOCH": "2025-12-14T21:50:59.075808", "MEAN_MOTION": 14.64815516, "ECCENTRICITY": 0.00027276, "INCLINATION": 98.1251, "RA_OF_ASC_NODE": 60.1641, "ARG_OF_PERICENTER": 265.9748, "MEAN_ANOMALY": 94.1143, "EPHEMERIS_TYPE": 0, "CLASSIFICATION_TYPE": "U", "NORAD_CAT_ID": 33331, "ELEMENT_SET_NO": 999, "REV_AT_EPOCH": 92317, "BSTAR": 0.00012649098, "MEAN_MOTION_DOT": 6.27e-06, "MEAN_MOTION_DDOT": 0}, "tle": {"line1": "1 33331U 08042A   25348.91040597  .00000627  00000+0  12649-3 0  9993", "line2": "2 33331  98.1251  60.1641 0002727 265.9748  94.1143 14.64815516923173"}}, "geometry": {"type": "Point", "coordinates": [66.24922828136911, -32.462829486040775]}}, {"type": "Feature", "properties": {"norad_id": 33396, "name": "THEOS", "group": "resource", "lat": 52.48655755616994, "lon": 36.44083027799349, "alt_km": 819.4476444218017, "timestamp": "2025-12-15T19:00:45.002938+00:00", "meta": {"OBJECT_NAME": "THEOS", "OBJECT_ID": "2008-049A", "EPOCH": "2025-12-14T22:28:13.589760", "MEAN_MOTION": 14.20097199, "ECCENTRICITY": 0.00011473, "INCLINATION": 98.5867, "RA_OF_ASC_NODE": 46.961, "ARG_OF_PERICENTER": 95.2228, "MEAN_ANOMALY": 264.908, "EPHEMERIS_TYPE": 0, "CLASSIFICATION_TYPE": "U", "NORAD_CAT_ID": 33396, "ELEMENT_SET_NO": 999, "REV_AT_EPOCH": 89181, "BSTAR": 0.00011667801, "MEAN_MOTION_DOT": 2.06e-06, "MEAN_MOTION_DDOT": 0}, "tle": {"line1": "1 33396U 08049A   25348.93626840  .00000206  00000+0  11668-3 0  9997", "line2": "2 33396  98.5867  46.9610 0001147  95.2228 264.9080 14.20097199891814"}}, "geometry": {"type": "Point", "coordinates": [36.44083027799349, 52.48655755616994]}}, {"type": "Feature", "properties": {"norad_id": 33412, "name": "COSMO-SKYMED 3", "group": "resource", "lat": -3.7530404753734694, "lon": -159.24658419465902, "alt_km": 564.765244869116, "timestamp": "2025-12-15T19:00:45.002949+00:00", "meta": {"OBJECT_NAME": "COSMO-SKYMED 3", "OBJECT_ID": "2008-054A", "EPOCH": "2025-12-14T22:17:26.862432", "MEAN_MOTION": 15.05383279, "ECCENTRICITY": 0.00162122, "INCLINATION": 97.8479, "RA_OF_ASC_NODE": 199.3572, "ARG_OF_PERICENTER": 165.7819, "MEAN_ANOMALY": 194.3867, "EPHEMERIS_TYPE": 0, "CLASSIFICATION_TYPE": "U", "NORAD_CAT_ID": 33412, "ELEMENT_SET_NO": 999, "REV_AT_EPOCH": 92920, "BSTAR": 0.00029790403, "MEAN_MOTION_DOT": 4.218e-05, "MEAN_MOTION_DDOT": 0}, "tle": {"line1": "1 33412U 08054A   25348.92878313  .00004218  00000+0  29790-3 0  9997", "line2": "2 33412  97.8479 199.3572 0016212 165.7819 194.3867 15.05383279929207"}}, "geometry": {"type": "Point", "coordinates": [-159.24658419465902, -3.7530404753734694]}}, {"type": "Feature", "properties": {"norad_id": 33446, "name": "YAOGAN-4", "group": "resource", "lat": 81.99463499189193, "lon": -161.86836368170694, "alt_km": 620.1253291036401, "timestamp": "2025-12-15T19:00:45.002960+00:00", "meta": {"OBJECT_NAME": "YAOGAN-4", "OBJECT_ID": "2008-061A", "EPOCH": "2025-12-14T19:56:16.699776", "MEAN_MOTION": 14.82690709, "ECCENTRICITY": 0.00134312, "INCLINATION": 97.9179, "RA_OF_ASC_NODE": 278.9095, "ARG_OF_PERICENTER": 315.9902, "MEAN_ANOMALY": 44.0242, "EPHEMERIS_TYPE": 0, "CLASSIFICATION_TYPE": "U", "NORAD_CAT_ID": 33446, "ELEMENT_SET_NO": 999, "REV_AT_EPOCH": 91834, "BSTAR": 0.00021548269, "MEAN_MOTION_DOT": 1.687e-05, "MEAN_MOTION_DDOT": 0}, "tle": {"line1": "1 33446U 08061A   25348.83074884  .00001687  00000+0  21548-3 0  9993", "line2": "2 33446  97.9179 278.9095 0013431 315.9902  44.0242 14.82690709918342"}}, "geometry": {"type": "Point", "coordinates": [-161.86836368170694, 81.99463499189193]}}]}